SL-8 R/B                
1 19257U 88053B   26119.21135140  .00000205  00000+0  75012-4 0  9999
2 19257  74.0498  19.3381 0020472 190.2588 287.0728 14.38943407983862
COSMOS 1975             
1 19573U 88093A   26119.13659438  .00007670  00000+0  27329-3 0  9996
2 19573  82.5191  67.0071 0011311   3.8674 356.2651 15.28695019 27114
SL-14 R/B               
1 19574U 88093B   26119.12508847  .00000378  00000+0  40712-4 0  9993
2 19574  82.5329 354.7105 0019453 228.5688 284.2863 14.85705620  8507
SL-16 R/B               
1 19650U 88102B   26119.19684316  .00000132  00000+0  91059-4 0  9990
2 19650  71.0009  45.2211 0016261 290.4335  69.5042 14.16157826934044
INTERCOSMOS 24          
1 20261U 89080A   26119.24468156  .00000487  00000+0  13812-3 0  9997
2 20261  82.6047  71.4807 1187589 175.4251 185.8969 12.59603978673160
SL-14 R/B               
1 20262U 89080C   26119.12379214  .00000391  00000+0  10845-3 0  9998
2 20262  82.5903 140.8197 1230954  69.5353 303.3395 12.50531346666459
DELTA 1 R/B             
1 20323U 89089B   26119.11016132  .00000274  00000+0  76655-4 0  9993
2 20323  97.0663 318.5138 0068067 324.3177  35.3481 14.50699093903042
ARIANE 40 R/B           
1 20443U 90005H   26119.12450074  .00000248  00000+0  92324-4 0  9996
2 20443  98.2993 178.2582 0011085  57.9588 302.2676 14.39900924900067
DELTA 2 R/B(1)          
1 20453U 90008B   26118.63495227  .00064237  00000+0  60822-3 0  9999
2 20453  35.6018 205.4372 0073178   7.3498 352.8298 15.62330203933938
COSMOS 2058             
1 20465U 90010A   26119.15818398  .00002824  00000+0  16393-3 0  9999
2 20465  82.4690 357.7023 0010196 149.1862 210.9969 15.11717732949860
SL-14 R/B               
1 20466U 90010B   26119.27112504  .00000451  00000+0  51549-4 0  9996
2 20466  82.5043 219.8760 0021004 130.6006 229.7041 14.83615092935986
SL-14 R/B               
1 20511U 90018B   26119.20239887  .00000344  00000+0  40237-4 0  9995
2 20511  82.5226 175.8924 0014744 287.0692  72.8907 14.82186691930063
HST                     
1 20580U 90037B   26119.10719019  .00006745  00000+0  21661-3 0  9991
2 20580  28.4752  55.8662 0001712 325.4254  34.6231 15.30194557781042
SL-16 R/B               
1 20625U 90046B   26119.24176115  .00000252  00000+0  15481-3 0  9990
2 20625  70.9988 191.7428 0015935 232.4046 127.5630 14.15016790855549
COSMOS 2084             
1 20663U 90055A   26119.25850300  .00001987  00000+0  14970-3 0  9996
2 20663  62.7890 163.0649 0009164 212.8315 147.2217 15.05917554943936
SL-6 R/B(2)             
1 20666U 90055D   26119.24474006  .00002548  00000+0  19691-3 0  9992
2 20666  62.7824  81.8965 0032960 357.4970   2.5959 15.03815600945796
SL-8 R/B                
1 20775U 90078B   26119.21824723  .00021097  00000+0  61471-3 0  9993
2 20775  82.9061 205.8226 0355983 203.2915 155.1835 14.90533891816825
