[{"OBJECT_NAME":"SL-8 R/B","OBJECT_ID":"1988-053B","EPOCH":"2026-04-29T05:04:20.760960","MEAN_MOTION":14.38943407,"ECCENTRICITY":0.00204721,"INCLINATION":74.0498,"RA_OF_ASC_NODE":19.3381,"ARG_OF_PERICENTER":190.2588,"MEAN_ANOMALY":287.0728,"EPHEMERIS_TYPE":0,"CLASSIFICATION_TYPE":"U","NORAD_CAT_ID":19257,"ELEMENT_SET_NO":999,"REV_AT_EPOCH":98386,"BSTAR":7.5011755e-5,"MEAN_MOTION_DOT":2.05e-6,"MEAN_MOTION_DDOT":0},{"OBJECT_NAME":"COSMOS 1975","OBJECT_ID":"1988-093A","EPOCH":"2026-04-29T03:16:41.754432","MEAN_MOTION":15.28695019,"ECCENTRICITY":0.0011311,"INCLINATION":82.5191,"RA_OF_ASC_NODE":67.0071,"ARG_OF_PERICENTER":3.8674,"MEAN_ANOMALY":356.2651,"EPHEMERIS_TYPE":0,"CLASSIFICATION_TYPE":"U","NORAD_CAT_ID":19573,"ELEMENT_SET_NO":999,"REV_AT_EPOCH":2711,"BSTAR":0.0002732933,"MEAN_MOTION_DOT":7.67e-5,"MEAN_MOTION_DDOT":0},{"OBJECT_NAME":"SL-14 R/B","OBJECT_ID":"1988-093B","EPOCH":"2026-04-29T03:00:07.643808","MEAN_MOTION":14.8570562,"ECCENTRICITY":0.00194535,"INCLINATION":82.5329,"RA_OF_ASC_NODE":354.7105,"ARG_OF_PERICENTER":228.5688,"MEAN_ANOMALY":284.2863,"EPHEMERIS_TYPE":0,"CLASSIFICATION_TYPE":"U","NORAD_CAT_ID":19574,"ELEMENT_SET_NO":999,"REV_AT_EPOCH":850,"BSTAR":4.0711844e-5,"MEAN_MOTION_DOT":3.78e-6,"MEAN_MOTION_DDOT":0},{"OBJECT_NAME":"SL-16 R/B","OBJECT_ID":"1988-102B","EPOCH":"2026-04-29T04:43:27.249024","MEAN_MOTION":14.16157826,"ECCENTRICITY":0.00162618,"INCLINATION":71.0009,"RA_OF_ASC_NODE":45.2211,"ARG_OF_PERICENTER":290.4335,"MEAN_ANOMALY":69.5042,"EPHEMERIS_TYPE":0,"CLASSIFICATION_TYPE":"U","NORAD_CAT_ID":19650,"ELEMENT_SET_NO":999,"REV_AT_EPOCH":93404,"BSTAR":9.1058519e-5,"MEAN_MOTION_DOT":1.32e-6,"MEAN_MOTION_DDOT":0},{"OBJECT_NAME":"INTERCOSMOS 24","OBJECT_ID":"1989-080A","EPOCH":"2026-04-29T05:52:20.486784","MEAN_MOTION":12.59603978,"ECCENTRICITY":0.11875897,"INCLINATION":82.6047,"RA_OF_ASC_NODE":71.4807,"ARG_OF_PERICENTER":175.4251,"MEAN_ANOMALY":185.8969,"EPHEMERIS_TYPE":0,"CLASSIFICATION_TYPE":"U","NORAD_CAT_ID":20261,"ELEMENT_SET_NO":999,"REV_AT_EPOCH":67316,"BSTAR":0.00013812197,"MEAN_MOTION_DOT":4.87e-6,"MEAN_MOTION_DDOT":0},{"OBJECT_NAME":"SL-14 R/B","OBJECT_ID":"1989-080C","EPOCH":"2026-04-29T02:58:15.640896","MEAN_MOTION":12.50531346,"ECCENTRICITY":0.12309546,"INCLINATION":82.5903,"RA_OF_ASC_NODE":140.8197,"ARG_OF_PERICENTER":69.5353,"MEAN_ANOMALY":303.3395,"EPHEMERIS_TYPE":0,"CLASSIFICATION_TYPE":"U","NORAD_CAT_ID":20262,"ELEMENT_SET_NO":999,"REV_AT_EPOCH":66645,"BSTAR":0.00010844821,"MEAN_MOTION_DOT":3.91e-6,"MEAN_MOTION_DDOT":0},{"OBJECT_NAME":"DELTA 1 R/B","OBJECT_ID":"1989-089B","EPOCH":"2026-04-29T02:38:37.938048","MEAN_MOTION":14.50699093,"ECCENTRICITY":0.00680674,"INCLINATION":97.0663,"RA_OF_ASC_NODE":318.5138,"ARG_OF_PERICENTER":324.3177,"MEAN_ANOMALY":35.3481,"EPHEMERIS_TYPE":0,"CLASSIFICATION_TYPE":"U","NORAD_CAT_ID":20323,"ELEMENT_SET_NO":999,"REV_AT_EPOCH":90304,"BSTAR":7.6655389e-5,"MEAN_MOTION_DOT":2.74e-6,"MEAN_MOTION_DDOT":0},{"OBJECT_NAME":"ARIANE 40 R/B","OBJECT_ID":"1990-005H","EPOCH":"2026-04-29T02:59:16.863936","MEAN_MOTION":14.39900924,"ECCENTRICITY":0.00110854,"INCLINATION":98.2993,"RA_OF_ASC_NODE":178.2582,"ARG_OF_PERICENTER":57.9588,"MEAN_ANOMALY":302.2676,"EPHEMERIS_TYPE":0,"CLASSIFICATION_TYPE":"U","NORAD_CAT_ID":20443,"ELEMENT_SET_NO":999,"REV_AT_EPOCH":90006,"BSTAR":9.2324024e-5,"MEAN_MOTION_DOT":2.48e-6,"MEAN_MOTION_DDOT":0},{"OBJECT_NAME":"DELTA 2 R/B(1)","OBJECT_ID":"1990-008B","EPOCH":"2026-04-28T15:14:19.876128","MEAN_MOTION":15.62330203,"ECCENTRICITY":0.00731784,"INCLINATION":35.6018,"RA_OF_ASC_NODE":205.4372,"ARG_OF_PERICENTER":7.3498,"MEAN_ANOMALY":352.8298,"EPHEMERIS_TYPE":0,"CLASSIFICATION_TYPE":"U","NORAD_CAT_ID":20453,"ELEMENT_SET_NO":999,"REV_AT_EPOCH":93393,"BSTAR":0.00060821841,"MEAN_MOTION_DOT":0.00064237,"MEAN_MOTION_DDOT":0},{"OBJECT_NAME":"COSMOS 2058","OBJECT_ID":"1990-010A","EPOCH":"2026-04-29T03:47:47.095872","MEAN_MOTION":15.11717732,"ECCENTRICITY":0.00101968,"INCLINATION":82.469,"RA_OF_ASC_NODE":357.7023,"ARG_OF_PERICENTER":149.1862,"MEAN_ANOMALY":210.9969,"EPHEMERIS_TYPE":0,"CLASSIFICATION_TYPE":"U","NORAD_CAT_ID":20465,"ELEMENT_SET_NO":999,"REV_AT_EPOCH":94986,"BSTAR":0.00016393304,"MEAN_MOTION_DOT":2.824e-5,"MEAN_MOTION_DDOT":0},{"OBJECT_NAME":"SL-14 R/B","OBJECT_ID":"1990-010B","EPOCH":"2026-04-29T06:30:25.203456","MEAN_MOTION":14.83615092,"ECCENTRICITY":0.0021004,"INCLINATION":82.5043,"RA_OF_ASC_NODE":219.876,"ARG_OF_PERICENTER":130.6006,"MEAN_ANOMALY":229.7041,"EPHEMERIS_TYPE":0,"CLASSIFICATION_TYPE":"U","NORAD_CAT_ID":20466,"ELEMENT_SET_NO":999,"REV_AT_EPOCH":93598,"BSTAR":5.1549163e-5,"MEAN_MOTION_DOT":4.51e-6,"MEAN_MOTION_DDOT":0},{"OBJECT_NAME":"SL-14 R/B","OBJECT_ID":"1990-018B","EPOCH":"2026-04-29T04:51:27.262368","MEAN_MOTION":14.82186691,"ECCENTRICITY":0.00147441,"INCLINATION":82.5226,"RA_OF_ASC_NODE":175.8924,"ARG_OF_PERICENTER":287.0692,"MEAN_ANOMALY":72.8907,"EPHEMERIS_TYPE":0,"CLASSIFICATION_TYPE":"U","NORAD_CAT_ID":20511,"ELEMENT_SET_NO":999,"REV_AT_EPOCH":93006,"BSTAR":4.0237358e-5,"MEAN_MOTION_DOT":3.44e-6,"MEAN_MOTION_DDOT":0},{"OBJECT_NAME":"HST","OBJECT_ID":"1990-037B","EPOCH":"2026-04-29T02:34:21.232416","MEAN_MOTION":15.30194557,"ECCENTRICITY":0.00017121,"INCLINATION":28.4752,"RA_OF_ASC_NODE":55.8662,"ARG_OF_PERICENTER":325.4254,"MEAN_ANOMALY":34.6231,"EPHEMERIS_TYPE":0,"CLASSIFICATION_TYPE":"U","NORAD_CAT_ID":20580,"ELEMENT_SET_NO":999,"REV_AT_EPOCH":78104,"BSTAR":0.00021660815,"MEAN_MOTION_DOT":6.745e-5,"MEAN_MOTION_DDOT":0},{"OBJECT_NAME":"SL-16 R/B","OBJECT_ID":"1990-046B","EPOCH":"2026-04-29T05:48:08.163360","MEAN_MOTION":14.1501679,"ECCENTRICITY":0.00159356,"INCLINATION":70.9988,"RA_OF_ASC_NODE":191.7428,"ARG_OF_PERICENTER":232.4046,"MEAN_ANOMALY":127.563,"EPHEMERIS_TYPE":0,"CLASSIFICATION_TYPE":"U","NORAD_CAT_ID":20625,"ELEMENT_SET_NO":999,"REV_AT_EPOCH":85554,"BSTAR":0.00015481188,"MEAN_MOTION_DOT":2.52e-6,"MEAN_MOTION_DDOT":0},{"OBJECT_NAME":"COSMOS 2084","OBJECT_ID":"1990-055A","EPOCH":"2026-04-29T06:12:14.659200","MEAN_MOTION":15.05917554,"ECCENTRICITY":0.00091649,"INCLINATION":62.789,"RA_OF_ASC_NODE":163.0649,"ARG_OF_PERICENTER":212.8315,"MEAN_ANOMALY":147.2217,"EPHEMERIS_TYPE":0,"CLASSIFICATION_TYPE":"U","NORAD_CAT_ID":20663,"ELEMENT_SET_NO":999,"REV_AT_EPOCH":94393,"BSTAR":0.00014969664,"MEAN_MOTION_DOT":1.987e-5,"MEAN_MOTION_DDOT":0},{"OBJECT_NAME":"SL-6 R/B(2)","OBJECT_ID":"1990-055D","EPOCH":"2026-04-29T05:52:25.541184","MEAN_MOTION":15.038156,"ECCENTRICITY":0.00329606,"INCLINATION":62.7824,"RA_OF_ASC_NODE":81.8965,"ARG_OF_PERICENTER":357.497,"MEAN_ANOMALY":2.5959,"EPHEMERIS_TYPE":0,"CLASSIFICATION_TYPE":"U","NORAD_CAT_ID":20666,"ELEMENT_SET_NO":999,"REV_AT_EPOCH":94579,"BSTAR":0.00019690905,"MEAN_MOTION_DOT":2.548e-5,"MEAN_MOTION_DDOT":0},{"OBJECT_NAME":"SL-8 R/B","OBJECT_ID":"1990-078B","EPOCH":"2026-04-29T05:14:16.560672","MEAN_MOTION":14.90533891,"ECCENTRICITY":0.03559837,"INCLINATION":82.9061,"RA_OF_ASC_NODE":205.8226,"ARG_OF_PERICENTER":203.2915,"MEAN_ANOMALY":155.1835,"EPHEMERIS_TYPE":0,"CLASSIFICATION_TYPE":"U","NORAD_CAT_ID":20775,"ELEMENT_SET_NO":999,"REV_AT_EPOCH":81682,"BSTAR":0.00061471046,"MEAN_MOTION_DOT":0.00021097,"MEAN_MOTION_DDOT":0}]
